STARLINK-2120
1 17398C 21005BB  21326.10286782 -.00017452  00000-0 -11692-2 0  3263
2 17398  53.0520 233.2791 0002432  62.9369  75.0369 15.06417651    18
